start=new Date('2023-01-23T00:00:00.000Z').valueOf();
sats=[{"OBJECT_NAME":"STARLINK-3945","TLE_LINE1":"1 52691U 22053AM  23022.26803372  .00002839  00000-0  19637-3 0  9996","DECAY_DATE":null,"OBJECT_TYPE":"PAYLOAD","TIME_SYSTEM":"UTC","APOAPSIS":"540.530","EPHEMERIS_TYPE":"0","MEAN_MOTION_DOT":"0.00002839","SITE":"AFETR","REV_AT_EPOCH":"3828","OBJECT_ID":"2022-053AM","PERIAPSIS":"538.921","PERIOD":"95.437","RA_OF_ASC_NODE":"232.6573","COUNTRY_CODE":"US","RCS_SIZE":"LARGE","INCLINATION":"53.2143","TLE_LINE2":"2 52691  53.2143 232.6573 0001163  77.6416 282.4706 15.08846360 38284","SEMIMAJOR_AXIS":"6917.861","EPOCH":"2023-01-22T06:25:58.113408","MEAN_ELEMENT_THEORY":"SGP4","MEAN_MOTION_DDOT":"0.0000000000000","CENTER_NAME":"EARTH","CLASSIFICATION_TYPE":"U","NORAD_CAT_ID":"52691","ARG_OF_PERICENTER":"77.6416","BSTAR":"0.00019637000000","LAUNCH_DATE":"2022-05-18","REF_FRAME":"TEME","MEAN_ANOMALY":"282.4706","ECCENTRICITY":"0.00011630","GP_ID":"223589599","MEAN_MOTION":"15.08846360","ELEMENT_SET_NO":"999","FILE":"3757711"},{"RCS_SIZE":"LARGE","COUNTRY_CODE":"US","RA_OF_ASC_NODE":"235.5839","PERIOD":"95.438","PERIAPSIS":"538.802","REV_AT_EPOCH":"3818","OBJECT_ID":"2022-053AN","APOAPSIS":"540.687","EPHEMERIS_TYPE":"0","MEAN_MOTION_DOT":"0.00015625","SITE":"AFETR","OBJECT_TYPE":"PAYLOAD","TIME_SYSTEM":"UTC","DECAY_DATE":null,"OBJECT_NAME":"STARLINK-3993","TLE_LINE1":"1 52692U 22053AN  23021.61670151  .00015625  00000-0  99763-3 0  9997","FILE":"3757138","ELEMENT_SET_NO":"999","MEAN_ANOMALY":"268.4253","MEAN_MOTION":"15.08840297","GP_ID":"223577231","ECCENTRICITY":"0.00013620","REF_FRAME":"TEME","BSTAR":"0.00099763000000","ARG_OF_PERICENTER":"91.6895","LAUNCH_DATE":"2022-05-18","CLASSIFICATION_TYPE":"U","NORAD_CAT_ID":"52692","CENTER_NAME":"EARTH","MEAN_MOTION_DDOT":"0.0000000000000","INCLINATION":"53.2137","EPOCH":"2023-01-21T14:48:03.010464","TLE_LINE2":"2 52692  53.2137 235.5839 0001362  91.6895 268.4253 15.08840297 38186","SEMIMAJOR_AXIS":"6917.879","MEAN_ELEMENT_THEORY":"SGP4"},{"OBJECT_TYPE":"PAYLOAD","TIME_SYSTEM":"UTC","DECAY_DATE":null,"MEAN_MOTION_DOT":"0.00005567","SITE":"AFETR","APOAPSIS":"540.736","EPHEMERIS_TYPE":"0","TLE_LINE1":"1 52693U 22053AP  23021.33331343  .00005567  00000-0  36752-3 0  9997","OBJECT_NAME":"STARLINK-3946","RCS_SIZE":"LARGE","PERIAPSIS":"538.715","OBJECT_ID":"2022-053AP","REV_AT_EPOCH":"3814","COUNTRY_CODE":"US","PERIOD":"95.437","RA_OF_ASC_NODE":"236.8568","NORAD_CAT_ID":"52693","CLASSIFICATION_TYPE":"U","REF_FRAME":"TEME","LAUNCH_DATE":"2022-05-18","BSTAR":"0.00036752000000","ARG_OF_PERICENTER":"86.4096","EPOCH":"2023-01-21T07:59:58.280352","TLE_LINE2":"2 52693  53.2134 236.8568 0001461  86.4096 273.7063 15.08846582 38149","SEMIMAJOR_AXIS":"6917.860","MEAN_ELEMENT_THEORY":"SGP4","INCLINATION":"53.2134","CENTER_NAME":"EARTH","MEAN_MOTION_DDOT":"0.0000000000000","FILE":"3756913","ELEMENT_SET_NO":"999","GP_ID":"223571535","MEAN_MOTION":"15.08846582","ECCENTRICITY":"0.00014610","MEAN_ANOMALY":"273.7063"},{"COUNTRY_CODE":"US","RA_OF_ASC_NODE":"231.4302","PERIOD":"95.437","PERIAPSIS":"539.423","OBJECT_ID":"2022-053AQ","REV_AT_EPOCH":"3832","RCS_SIZE":"LARGE","TLE_LINE1":"1 52694U 22053AQ  23022.54034114  .00002398  00000-0  16862-3 0  9997","OBJECT_NAME":"STARLINK-4072","SITE":"AFETR","MEAN_MOTION_DOT":"0.00002398","EPHEMERIS_TYPE":"0","APOAPSIS":"539.979","TIME_SYSTEM":"UTC","OBJECT_TYPE":"PAYLOAD","DECAY_DATE":null,"ELEMENT_SET_NO":"999","ECCENTRICITY":"0.00004020","GP_ID":"223597074","MEAN_MOTION":"15.08854638","MEAN_ANOMALY":"218.9513","FILE":"3758065","CENTER_NAME":"EARTH","MEAN_MOTION_DDOT":"0.0000000000000","TLE_LINE2":"2 52694  53.2143 231.4302 0000402 141.1508 218.9513 15.08854638 38320","MEAN_ELEMENT_THEORY":"SGP4","SEMIMAJOR_AXIS":"6917.836","EPOCH":"2023-01-22T12:58:05.474496","INCLINATION":"53.2143","REF_FRAME":"TEME","LAUNCH_DATE":"2022-05-18","BSTAR":"0.00016862000000","ARG_OF_PERICENTER":"141.1508","NORAD_CAT_ID":"52694","CLASSIFICATION_TYPE":"U"},{"CENTER_NAME":"EARTH","MEAN_MOTION_DDOT":"0.0000000000000","SEMIMAJOR_AXIS":"6917.880","TLE_LINE2":"2 52695  53.2130 241.8318 0001748  88.6796 271.4396 15.08840213 38076","EPOCH":"2023-01-21T08:08:38.111136","MEAN_ELEMENT_THEORY":"SGP4","INCLINATION":"53.2130","REF_FRAME":"TEME","LAUNCH_DATE":"2022-05-18","ARG_OF_PERICENTER":"88.6796","BSTAR":"0.00007318900000","NORAD_CAT_ID":"52695","CLASSIFICATION_TYPE":"U","ELEMENT_SET_NO":"999","GP_ID":"223571545","ECCENTRICITY":"0.00017480","MEAN_MOTION":"15.08840213","MEAN_ANOMALY":"271.4396","FILE":"3756913","TLE_LINE1":"1 52695U 22053AR  23021.33932999  .00000877  00000-0  73189-4 0  9998","OBJECT_NAME":"STARLINK-4041","MEAN_MOTION_DOT":"0.00000877","SITE":"AFETR","EPHEMERIS_TYPE":"0","APOAPSIS":"540.954","TIME_SYSTEM":"UTC","OBJECT_TYPE":"PAYLOAD","DECAY_DATE":null,"COUNTRY_CODE":"US","PERIOD":"95.438","RA_OF_ASC_NODE":"241.8318","PERIAPSIS":"538.535","OBJECT_ID":"2022-053AR","REV_AT_EPOCH":"3807","RCS_SIZE":"LARGE"},{"RCS_SIZE":"LARGE","PERIAPSIS":"539.175","REV_AT_EPOCH":"3833","OBJECT_ID":"2022-053AS","COUNTRY_CODE":"US","RA_OF_ASC_NODE":"231.1900","PERIOD":"95.437","OBJECT_TYPE":"PAYLOAD","TIME_SYSTEM":"UTC","DECAY_DATE":null,"APOAPSIS":"540.304","EPHEMERIS_TYPE":"0","SITE":"AFETR","MEAN_MOTION_DOT":"0.00000925","OBJECT_NAME":"STARLINK-4025","TLE_LINE1":"1 52696U 22053AS  23022.59555169  .00000925  00000-0  76211-4 0  9991","FILE":"3758083","ELEMENT_SET_NO":"999","MEAN_ANOMALY":"282.4486","ECCENTRICITY":"0.00008160","GP_ID":"223597978","MEAN_MOTION":"15.08841962","CLASSIFICATION_TYPE":"U","NORAD_CAT_ID":"52696","REF_FRAME":"TEME","ARG_OF_PERICENTER":"77.6597","BSTAR":"0.00007621100000","LAUNCH_DATE":"2022-05-18","INCLINATION":"53.2150","SEMIMAJOR_AXIS":"6917.874","TLE_LINE2":"2 52696  53.2150 231.1900 0000816  77.6597 282.4486 15.08841962 38333","EPOCH":"2023-01-22T14:17:35.666016","MEAN_ELEMENT_THEORY":"SGP4","CENTER_NAME":"EARTH","MEAN_MOTION_DDOT":"0.0000000000000"},{"ELEMENT_SET_NO":"999","ECCENTRICITY":"0.00011490","GP_ID":"223597587","MEAN_MOTION":"15.08868636","MEAN_ANOMALY":"257.0715","FILE":"3758066","TLE_LINE2":"2 52697  53.2117 236.1416 0001149 103.0406 257.0715 15.08868636 38269","SEMIMAJOR_AXIS":"6917.793","EPOCH":"2023-01-22T14:31:33.806496","MEAN_ELEMENT_THEORY":"SGP4","INCLINATION":"53.2117","CENTER_NAME":"EARTH","MEAN_MOTION_DDOT":"0.0000000000000","NORAD_CAT_ID":"52697","CLASSIFICATION_TYPE":"U","REF_FRAME":"TEME","LAUNCH_DATE":"2022-05-18","BSTAR":"0.00104660000000","ARG_OF_PERICENTER":"103.0406","PERIAPSIS":"538.863","OBJECT_ID":"2022-053AT","REV_AT_EPOCH":"3826","COUNTRY_CODE":"US","PERIOD":"95.436","RA_OF_ASC_NODE":"236.1416","RCS_SIZE":"LARGE","TLE_LINE1":"1 52697U 22053AT  23022.60525239  .00016421  00000-0  10466-2 0  9995","OBJECT_NAME":"STARLINK-4018","OBJECT_TYPE":"PAYLOAD","TIME_SYSTEM":"UTC","DECAY_DATE":null,"SITE":"AFETR","MEAN_MOTION_DOT":"0.00016421","APOAPSIS":"540.453","EPHEMERIS_TYPE":"0"},{"NORAD_CAT_ID":"52698","CLASSIFICATION_TYPE":"U","REF_FRAME":"TEME","BSTAR":"0.00016043000000","ARG_OF_PERICENTER":"78.7932","LAUNCH_DATE":"2022-05-18","INCLINATION":"53.2150","SEMIMAJOR_AXIS":"6917.862","TLE_LINE2":"2 52698  53.2150 237.5799 0001728  78.7932 281.3254 15.08846179 38212","EPOCH":"2023-01-22T06:50:31.677504","MEAN_ELEMENT_THEORY":"SGP4","CENTER_NAME":"EARTH","MEAN_MOTION_DDOT":"0.0000000000000","FILE":"3758066","ELEMENT_SET_NO":"999","MEAN_ANOMALY":"281.3254","ECCENTRICITY":"0.00017280","GP_ID":"223597595","MEAN_MOTION":"15.08846179","TIME_SYSTEM":"UTC","OBJECT_TYPE":"PAYLOAD","DECAY_DATE":null,"APOAPSIS":"540.922","EPHEMERIS_TYPE":"0","MEAN_MOTION_DOT":"0.00002267","SITE":"AFETR","OBJECT_NAME":"STARLINK-4030","TLE_LINE1":"1 52698U 22053AU  23022.28508886  .00002267  00000-0  16043-3 0  9990","RCS_SIZE":"MEDIUM","PERIAPSIS":"538.531","REV_AT_EPOCH":"3821","OBJECT_ID":"2022-053AU","COUNTRY_CODE":"US","RA_OF_ASC_NODE":"237.5799","PERIOD":"95.437"},{"RCS_SIZE":"LARGE","OBJECT_ID":"2022-053AV","REV_AT_EPOCH":"3834","PERIAPSIS":"538.814","RA_OF_ASC_NODE":"227.6785","PERIOD":"95.437","COUNTRY_CODE":"US","DECAY_DATE":null,"OBJECT_TYPE":"PAYLOAD","TIME_SYSTEM":"UTC","SITE":"AFETR","MEAN_MOTION_DOT":"0.00005727","APOAPSIS":"540.619","EPHEMERIS_TYPE":"0","TLE_LINE1":"1 52699U 22053AV  23022.26024902  .00005727  00000-0  37752-3 0  9995","OBJECT_NAME":"STARLINK-3987","FILE":"3757712","GP_ID":"223589794","ECCENTRICITY":"0.00013050","MEAN_MOTION":"15.08849392","MEAN_ANOMALY":"279.7668","ELEMENT_SET_NO":"999","CLASSIFICATION_TYPE":"U","NORAD_CAT_ID":"52699","LAUNCH_DATE":"2022-05-18","BSTAR":"0.00037752000000","ARG_OF_PERICENTER":"80.3471","REF_FRAME":"TEME","TLE_LINE2":"2 52699  53.2151 227.6785 0001305  80.3471 279.7668 15.08849392 38341","SEMIMAJOR_AXIS":"6917.852","EPOCH":"2023-01-22T06:14:45.515328","MEAN_ELEMENT_THEORY":"SGP4","INCLINATION":"53.2151","MEAN_MOTION_DDOT":"0.0000000000000","CENTER_NAME":"EARTH"},{"TIME_SYSTEM":"UTC","OBJECT_TYPE":"PAYLOAD","DECAY_DATE":null,"SITE":"AFETR","MEAN_MOTION_DOT":"0.00011293","APOAPSIS":"540.678","EPHEMERIS_TYPE":"0","TLE_LINE1":"1 52700U 22053AW  23022.60893404  .00011293  00000-0  72659-3 0  9997","OBJECT_NAME":"STARLINK-4034","RCS_SIZE":"LARGE","PERIAPSIS":"538.838","OBJECT_ID":"2022-053AW","REV_AT_EPOCH":"3826","COUNTRY_CODE":"US","PERIOD":"95.438","RA_OF_ASC_NODE":"236.1242","NORAD_CAT_ID":"52700","CLASSIFICATION_TYPE":"U","REF_FRAME":"TEME","LAUNCH_DATE":"2022-05-18","ARG_OF_PERICENTER":"103.4514","BSTAR":"0.00072659000000","TLE_LINE2":"2 52700  53.2154 236.1242 0001330 103.4514 256.6626 15.08835998 38269","SEMIMAJOR_AXIS":"6917.893","EPOCH":"2023-01-22T14:36:51.901056","MEAN_ELEMENT_THEORY":"SGP4","INCLINATION":"53.2154","CENTER_NAME":"EARTH","MEAN_MOTION_DDOT":"0.0000000000000","FILE":"3757910","ELEMENT_SET_NO":"999","GP_ID":"223594438","ECCENTRICITY":"0.00013300","MEAN_MOTION":"15.08835998","MEAN_ANOMALY":"256.6626"}];
